start=new Date('2022-02-05T00:00:00.000Z').valueOf();
sats=[{"LAUNCH_DATE":"2021-05-04","PERIOD":"95.592","PERIAPSIS":"545.977","TLE_LINE1":"1 48378U 21038AB  22035.80251279  .00000358  00000-0  42937-4 0  9995","COUNTRY_CODE":"US","OBJECT_ID":"2021-038AB","REF_FRAME":"TEME","INCLINATION":"53.0536","CENTER_NAME":"EARTH","GP_ID":"195306566","MEAN_ELEMENT_THEORY":"SGP4","SEMIMAJOR_AXIS":"6925.326","NORAD_CAT_ID":"48378","MEAN_MOTION_DOT":"0.00000358","DECAY_DATE":null,"RA_OF_ASC_NODE":"217.9477","REV_AT_EPOCH":"4259","TLE_LINE2":"2 48378  53.0536 217.9477 0001753  76.7319 283.3865 15.06407372 42590","MEAN_MOTION":"15.06407372","FILE":"3292020","APOAPSIS":"548.405","SITE":"AFETR","ARG_OF_PERICENTER":"76.7319","TIME_SYSTEM":"UTC","CLASSIFICATION_TYPE":"U","OBJECT_TYPE":"PAYLOAD","EPOCH":"2022-02-04T19:15:37.105056","MEAN_ANOMALY":"283.3865","OBJECT_NAME":"STARLINK-2526","RCS_SIZE":"LARGE","ELEMENT_SET_NO":"999","BSTAR":"0.00004293700000","EPHEMERIS_TYPE":"0","ECCENTRICITY":"0.00017530","MEAN_MOTION_DDOT":"0.0000000000000"},{"INCLINATION":"53.0539","CENTER_NAME":"EARTH","OBJECT_ID":"2021-038AC","REF_FRAME":"TEME","COUNTRY_CODE":"US","TLE_LINE1":"1 48379U 21038AC  22035.53343124  .00000748  00000-0  69110-4 0  9992","PERIAPSIS":"546.082","LAUNCH_DATE":"2021-05-04","PERIOD":"95.592","SITE":"AFETR","FILE":"3291889","MEAN_MOTION":"15.06401374","APOAPSIS":"548.337","RA_OF_ASC_NODE":"219.1504","REV_AT_EPOCH":"4196","TLE_LINE2":"2 48379  53.0539 219.1504 0001628  73.9902 286.1266 15.06401374 41969","DECAY_DATE":null,"NORAD_CAT_ID":"48379","SEMIMAJOR_AXIS":"6925.344","MEAN_MOTION_DOT":"0.00000748","GP_ID":"195299496","MEAN_ELEMENT_THEORY":"SGP4","MEAN_ANOMALY":"286.1266","EPOCH":"2022-02-04T12:48:08.459136","OBJECT_TYPE":"PAYLOAD","CLASSIFICATION_TYPE":"U","TIME_SYSTEM":"UTC","ARG_OF_PERICENTER":"73.9902","MEAN_MOTION_DDOT":"0.0000000000000","ECCENTRICITY":"0.00016280","EPHEMERIS_TYPE":"0","BSTAR":"0.00006911000000","RCS_SIZE":"LARGE","ELEMENT_SET_NO":"999","OBJECT_NAME":"STARLINK-2612"},{"SITE":"AFETR","RA_OF_ASC_NODE":"219.3335","TLE_LINE2":"2 48380  53.0546 219.3335 0001543  72.0655 288.0502 15.06401601 41950","REV_AT_EPOCH":"4195","FILE":"3291889","MEAN_MOTION":"15.06401601","APOAPSIS":"548.277","DECAY_DATE":null,"MEAN_ELEMENT_THEORY":"SGP4","GP_ID":"195299747","NORAD_CAT_ID":"48380","SEMIMAJOR_AXIS":"6925.344","MEAN_MOTION_DOT":"0.00000134","INCLINATION":"53.0546","CENTER_NAME":"EARTH","COUNTRY_CODE":"US","OBJECT_ID":"2021-038AD","REF_FRAME":"TEME","TLE_LINE1":"1 48380U 21038AD  22035.49193752  .00000134  00000-0  27863-4 0  9997","LAUNCH_DATE":"2021-05-04","PERIOD":"95.592","PERIAPSIS":"546.140","MEAN_MOTION_DDOT":"0.0000000000000","ECCENTRICITY":"0.00015430","BSTAR":"0.00002786300000","EPHEMERIS_TYPE":"0","RCS_SIZE":"LARGE","ELEMENT_SET_NO":"999","OBJECT_NAME":"STARLINK-2614","MEAN_ANOMALY":"288.0502","CLASSIFICATION_TYPE":"U","OBJECT_TYPE":"PAYLOAD","EPOCH":"2022-02-04T11:48:23.401728","ARG_OF_PERICENTER":"72.0655","TIME_SYSTEM":"UTC"},{"MEAN_MOTION_DDOT":"0.0000000000000","ECCENTRICITY":"0.00020430","BSTAR":"0.00006125000000","EPHEMERIS_TYPE":"0","RCS_SIZE":"LARGE","OBJECT_NAME":"STARLINK-2630","ELEMENT_SET_NO":"999","MEAN_ANOMALY":"287.3711","EPOCH":"2022-02-04T12:42:50.122656","OBJECT_TYPE":"PAYLOAD","CLASSIFICATION_TYPE":"U","ARG_OF_PERICENTER":"72.7502","TIME_SYSTEM":"UTC","SITE":"AFETR","RA_OF_ASC_NODE":"219.1692","TLE_LINE2":"2 48381  53.0531 219.1692 0002043  72.7502 287.3711 15.06398664 41962","REV_AT_EPOCH":"4196","MEAN_MOTION":"15.06398664","FILE":"3291889","APOAPSIS":"548.633","DECAY_DATE":null,"GP_ID":"195299992","MEAN_ELEMENT_THEORY":"SGP4","SEMIMAJOR_AXIS":"6925.353","NORAD_CAT_ID":"48381","MEAN_MOTION_DOT":"0.00000631","INCLINATION":"53.0531","CENTER_NAME":"EARTH","COUNTRY_CODE":"US","OBJECT_ID":"2021-038AE","REF_FRAME":"TEME","TLE_LINE1":"1 48381U 21038AE  22035.52974679  .00000631  00000-0  61250-4 0  9997","LAUNCH_DATE":"2021-05-04","PERIOD":"95.592","PERIAPSIS":"545.803"},{"TIME_SYSTEM":"UTC","ARG_OF_PERICENTER":"76.8786","OBJECT_TYPE":"PAYLOAD","CLASSIFICATION_TYPE":"U","EPOCH":"2022-02-04T18:59:41.124480","MEAN_ANOMALY":"283.2423","RCS_SIZE":"LARGE","OBJECT_NAME":"STARLINK-2585","ELEMENT_SET_NO":"999","BSTAR":"0.00005098100000","EPHEMERIS_TYPE":"0","ECCENTRICITY":"0.00019690","MEAN_MOTION_DDOT":"0.0000000000000","PERIOD":"95.592","LAUNCH_DATE":"2021-05-04","PERIAPSIS":"545.851","TLE_LINE1":"1 48382U 21038AF  22035.79144820  .00000478  00000-0  50981-4 0  9992","COUNTRY_CODE":"US","REF_FRAME":"TEME","OBJECT_ID":"2021-038AF","CENTER_NAME":"EARTH","INCLINATION":"53.0546","MEAN_ELEMENT_THEORY":"SGP4","GP_ID":"195308344","MEAN_MOTION_DOT":"0.00000478","SEMIMAJOR_AXIS":"6925.350","NORAD_CAT_ID":"48382","DECAY_DATE":null,"TLE_LINE2":"2 48382  53.0546 217.9887 0001969  76.8786 283.2423 15.06399583 42592","REV_AT_EPOCH":"4259","RA_OF_ASC_NODE":"217.9887","APOAPSIS":"548.578","MEAN_MOTION":"15.06399583","FILE":"3292107","SITE":"AFETR"},{"BSTAR":"0.00003501800000","EPHEMERIS_TYPE":"0","OBJECT_NAME":"STARLINK-2599","RCS_SIZE":"LARGE","ELEMENT_SET_NO":"999","MEAN_MOTION_DDOT":"0.0000000000000","ECCENTRICITY":"0.00018630","ARG_OF_PERICENTER":"73.5758","TIME_SYSTEM":"UTC","MEAN_ANOMALY":"286.5436","EPOCH":"2022-02-04T18:54:21.434976","OBJECT_TYPE":"PAYLOAD","CLASSIFICATION_TYPE":"U","DECAY_DATE":null,"MEAN_ELEMENT_THEORY":"SGP4","GP_ID":"195304584","NORAD_CAT_ID":"48383","SEMIMAJOR_AXIS":"6925.326","MEAN_MOTION_DOT":"0.00000240","SITE":"AFETR","RA_OF_ASC_NODE":"217.9913","TLE_LINE2":"2 48383  53.0555 217.9913 0001863  73.5758 286.5436 15.06407402 42588","REV_AT_EPOCH":"4258","FILE":"3291982","MEAN_MOTION":"15.06407402","APOAPSIS":"548.481","TLE_LINE1":"1 48383U 21038AG  22035.78774809  .00000240  00000-0  35018-4 0  9999","LAUNCH_DATE":"2021-05-04","PERIOD":"95.592","PERIAPSIS":"545.901","INCLINATION":"53.0555","CENTER_NAME":"EARTH","COUNTRY_CODE":"US","OBJECT_ID":"2021-038AG","REF_FRAME":"TEME"},{"SITE":"AFETR","MEAN_MOTION":"15.06392469","FILE":"3292134","APOAPSIS":"548.501","RA_OF_ASC_NODE":"218.0141","TLE_LINE2":"2 48384  53.0548 218.0141 0001826  70.5513 289.5673 15.06392469 42583","REV_AT_EPOCH":"4258","DECAY_DATE":null,"SEMIMAJOR_AXIS":"6925.372","NORAD_CAT_ID":"48384","MEAN_MOTION_DOT":"0.00000087","MEAN_ELEMENT_THEORY":"SGP4","GP_ID":"195309206","INCLINATION":"53.0548","CENTER_NAME":"EARTH","OBJECT_ID":"2021-038AH","REF_FRAME":"TEME","COUNTRY_CODE":"US","TLE_LINE1":"1 48384U 21038AH  22035.78408054  .00000087  00000-0  24781-4 0  9990","PERIAPSIS":"545.972","LAUNCH_DATE":"2021-05-04","PERIOD":"95.593","MEAN_MOTION_DDOT":"0.0000000000000","ECCENTRICITY":"0.00018260","EPHEMERIS_TYPE":"0","BSTAR":"0.00002478100000","OBJECT_NAME":"STARLINK-2601","RCS_SIZE":"LARGE","ELEMENT_SET_NO":"999","MEAN_ANOMALY":"289.5673","OBJECT_TYPE":"PAYLOAD","EPOCH":"2022-02-04T18:49:04.558656","CLASSIFICATION_TYPE":"U","TIME_SYSTEM":"UTC","ARG_OF_PERICENTER":"70.5513"},{"EPHEMERIS_TYPE":"0","BSTAR":"0.00036199000000","RCS_SIZE":"LARGE","ELEMENT_SET_NO":"999","OBJECT_NAME":"STARLINK-2598","MEAN_MOTION_DDOT":"0.0000000000000","ECCENTRICITY":"0.00018650","ARG_OF_PERICENTER":"73.2935","TIME_SYSTEM":"UTC","MEAN_ANOMALY":"286.8259","CLASSIFICATION_TYPE":"U","OBJECT_TYPE":"PAYLOAD","EPOCH":"2022-02-04T12:21:36.822528","DECAY_DATE":null,"SEMIMAJOR_AXIS":"6925.301","NORAD_CAT_ID":"48385","MEAN_MOTION_DOT":"0.00005116","GP_ID":"195300492","MEAN_ELEMENT_THEORY":"SGP4","SITE":"AFETR","MEAN_MOTION":"15.06415384","FILE":"3291889","APOAPSIS":"548.458","RA_OF_ASC_NODE":"219.2194","REV_AT_EPOCH":"4318","TLE_LINE2":"2 48385  53.0531 219.2194 0001865  73.2935 286.8259 15.06415384 43187","TLE_LINE1":"1 48385U 21038AJ  22035.51500952  .00005116  00000-0  36199-3 0  9995","PERIAPSIS":"545.875","LAUNCH_DATE":"2021-05-04","PERIOD":"95.591","INCLINATION":"53.0531","CENTER_NAME":"EARTH","OBJECT_ID":"2021-038AJ","REF_FRAME":"TEME","COUNTRY_CODE":"US"},{"EPHEMERIS_TYPE":"0","BSTAR":"-0.00000289710000","OBJECT_NAME":"STARLINK-2606","RCS_SIZE":"LARGE","ELEMENT_SET_NO":"999","MEAN_MOTION_DDOT":"0.0000000000000","ECCENTRICITY":"0.00018380","ARG_OF_PERICENTER":"75.8888","TIME_SYSTEM":"UTC","MEAN_ANOMALY":"284.2306","OBJECT_TYPE":"PAYLOAD","CLASSIFICATION_TYPE":"U","EPOCH":"2022-02-04T18:24:29.231136","DECAY_DATE":null,"SEMIMAJOR_AXIS":"6925.357","NORAD_CAT_ID":"48386","MEAN_MOTION_DOT":"-0.00000325","GP_ID":"195308623","MEAN_ELEMENT_THEORY":"SGP4","SITE":"AFETR","MEAN_MOTION":"15.06397087","FILE":"3292110","APOAPSIS":"548.495","RA_OF_ASC_NODE":"213.1059","TLE_LINE2":"2 48386  53.0537 213.1059 0001838  75.8888 284.2306 15.06397087 42657","REV_AT_EPOCH":"4265","TLE_LINE1":"1 48386U 21038AK  22035.76700499 -.00000325  00000-0 -28971-5 0  9991","PERIAPSIS":"545.950","LAUNCH_DATE":"2021-05-04","PERIOD":"95.592","INCLINATION":"53.0537","CENTER_NAME":"EARTH","OBJECT_ID":"2021-038AK","REF_FRAME":"TEME","COUNTRY_CODE":"US"},{"ARG_OF_PERICENTER":"63.3041","TIME_SYSTEM":"UTC","CLASSIFICATION_TYPE":"U","OBJECT_TYPE":"PAYLOAD","EPOCH":"2022-02-04T12:50:06.511776","MEAN_ANOMALY":"296.8167","ELEMENT_SET_NO":"999","RCS_SIZE":"LARGE","OBJECT_NAME":"STARLINK-2600","BSTAR":"0.00003093300000","EPHEMERIS_TYPE":"0","ECCENTRICITY":"0.00021460","MEAN_MOTION_DDOT":"0.0000000000000","PERIOD":"95.593","LAUNCH_DATE":"2021-05-04","PERIAPSIS":"545.747","TLE_LINE1":"1 48387U 21038AL  22035.53479759  .00000179  00000-0  30933-4 0  9994","COUNTRY_CODE":"US","REF_FRAME":"TEME","OBJECT_ID":"2021-038AL","CENTER_NAME":"EARTH","INCLINATION":"53.0536","GP_ID":"195299497","MEAN_ELEMENT_THEORY":"SGP4","MEAN_MOTION_DOT":"0.00000179","SEMIMAJOR_AXIS":"6925.368","NORAD_CAT_ID":"48387","DECAY_DATE":null,"TLE_LINE2":"2 48387  53.0536 214.1466 0002146  63.3041 296.8167 15.06393548 42030","REV_AT_EPOCH":"4203","RA_OF_ASC_NODE":"214.1466","APOAPSIS":"548.720","MEAN_MOTION":"15.06393548","FILE":"3291889","SITE":"AFETR"}];
